start=new Date('2023-04-12T00:00:00.000Z').valueOf();
sats=[{"PERIOD":"95.592","LAUNCH_DATE":"2021-02-16","DECAY_DATE":null,"ECCENTRICITY":"0.00015450","SITE":"AFETR","CLASSIFICATION_TYPE":"U","FILE":"3885783","MEAN_MOTION":"15.06401893","TLE_LINE1":"1 47653U 21012AK  23101.40315036  .00018815  00000-0  12786-2 0  9999","TIME_SYSTEM":"UTC","RA_OF_ASC_NODE":"144.8961","MEAN_ANOMALY":"287.1303","EPOCH":"2023-04-11T09:40:32.191104","INCLINATION":"53.0518","ELEMENT_SET_NO":"999","RCS_SIZE":"LARGE","COUNTRY_CODE":"US","TLE_LINE2":"2 47653  53.0518 144.8961 0001545  72.9856 287.1303 15.06401893119994","PERIAPSIS":"546.138","OBJECT_NAME":"STARLINK-2037","REF_FRAME":"TEME","NORAD_CAT_ID":"47653","EPHEMERIS_TYPE":"0","MEAN_ELEMENT_THEORY":"SGP4","REV_AT_EPOCH":"11999","ARG_OF_PERICENTER":"72.9856","OBJECT_ID":"2021-012AK","GP_ID":"229914315","CENTER_NAME":"EARTH","BSTAR":"0.00127860000000","MEAN_MOTION_DOT":"0.00018815","SEMIMAJOR_AXIS":"6925.343","MEAN_MOTION_DDOT":"0.0000000000000","APOAPSIS":"548.278","OBJECT_TYPE":"PAYLOAD"},{"PERIAPSIS":"546.177","TLE_LINE2":"2 47654  53.0531 162.7665 0001417  97.2326 262.8824 15.06418183119796","COUNTRY_CODE":"US","OBJECT_NAME":"STARLINK-2038","REF_FRAME":"TEME","RA_OF_ASC_NODE":"162.7665","TIME_SYSTEM":"UTC","MEAN_ANOMALY":"262.8824","EPOCH":"2023-04-11T21:02:34.420992","RCS_SIZE":"LARGE","INCLINATION":"53.0531","ELEMENT_SET_NO":"999","SITE":"AFETR","FILE":"3885919","MEAN_MOTION":"15.06418183","TLE_LINE1":"1 47654U 21012AL  23101.87678728  .00002358  00000-0  17705-3 0  9993","CLASSIFICATION_TYPE":"U","PERIOD":"95.591","LAUNCH_DATE":"2021-02-16","DECAY_DATE":null,"ECCENTRICITY":"0.00014170","MEAN_MOTION_DDOT":"0.0000000000000","APOAPSIS":"548.139","OBJECT_TYPE":"PAYLOAD","MEAN_MOTION_DOT":"0.00002358","SEMIMAJOR_AXIS":"6925.293","GP_ID":"229944174","ARG_OF_PERICENTER":"97.2326","OBJECT_ID":"2021-012AL","BSTAR":"0.00017705000000","CENTER_NAME":"EARTH","EPHEMERIS_TYPE":"0","MEAN_ELEMENT_THEORY":"SGP4","NORAD_CAT_ID":"47654","REV_AT_EPOCH":"11979"},{"EPHEMERIS_TYPE":"0","MEAN_ELEMENT_THEORY":"SGP4","NORAD_CAT_ID":"47655","REV_AT_EPOCH":"11979","GP_ID":"229944426","OBJECT_ID":"2021-012AM","ARG_OF_PERICENTER":"99.8509","BSTAR":"0.00003561500000","CENTER_NAME":"EARTH","MEAN_MOTION_DOT":"0.00000249","SEMIMAJOR_AXIS":"6925.277","MEAN_MOTION_DDOT":"0.0000000000000","APOAPSIS":"548.325","OBJECT_TYPE":"PAYLOAD","PERIOD":"95.591","DECAY_DATE":null,"LAUNCH_DATE":"2021-02-16","ECCENTRICITY":"0.00017080","SITE":"AFETR","MEAN_MOTION":"15.06423390","FILE":"3885919","TLE_LINE1":"1 47655U 21012AM  23101.86941767  .00000249  00000-0  35615-4 0  9997","CLASSIFICATION_TYPE":"U","RA_OF_ASC_NODE":"162.8035","MEAN_ANOMALY":"260.2672","TIME_SYSTEM":"UTC","EPOCH":"2023-04-11T20:51:57.686688","RCS_SIZE":"LARGE","INCLINATION":"53.0519","ELEMENT_SET_NO":"999","PERIAPSIS":"545.959","TLE_LINE2":"2 47655  53.0519 162.8035 0001708  99.8509 260.2672 15.06423390119798","COUNTRY_CODE":"US","OBJECT_NAME":"STARLINK-2039","REF_FRAME":"TEME"},{"TLE_LINE1":"1 47656U 21012AN  23101.35524912  .00004717  00000-0  33562-3 0  9993","FILE":"3885783","MEAN_MOTION":"15.06370710","CLASSIFICATION_TYPE":"U","SITE":"AFETR","ECCENTRICITY":"0.00014930","LAUNCH_DATE":"2021-02-16","DECAY_DATE":null,"PERIOD":"95.594","REF_FRAME":"TEME","OBJECT_NAME":"STARLINK-2040","PERIAPSIS":"546.269","TLE_LINE2":"2 47656  53.0525 145.1116 0001493  80.5892 279.5266 15.06370710119994","COUNTRY_CODE":"US","RCS_SIZE":"LARGE","ELEMENT_SET_NO":"999","INCLINATION":"53.0525","EPOCH":"2023-04-11T08:31:33.523968","MEAN_ANOMALY":"279.5266","TIME_SYSTEM":"UTC","RA_OF_ASC_NODE":"145.1116","BSTAR":"0.00033562000000","CENTER_NAME":"EARTH","GP_ID":"229915067","OBJECT_ID":"2021-012AN","ARG_OF_PERICENTER":"80.5892","REV_AT_EPOCH":"11999","MEAN_ELEMENT_THEORY":"SGP4","EPHEMERIS_TYPE":"0","NORAD_CAT_ID":"47656","OBJECT_TYPE":"PAYLOAD","APOAPSIS":"548.337","MEAN_MOTION_DDOT":"0.0000000000000","SEMIMAJOR_AXIS":"6925.438","MEAN_MOTION_DOT":"0.00004717"},{"MEAN_MOTION_DDOT":"0.0000000000000","APOAPSIS":"547.901","OBJECT_TYPE":"PAYLOAD","MEAN_MOTION_DOT":"0.00024993","SEMIMAJOR_AXIS":"6925.177","OBJECT_ID":"2021-012AP","ARG_OF_PERICENTER":"94.2594","GP_ID":"229913816","CENTER_NAME":"EARTH","BSTAR":"0.00168830000000","NORAD_CAT_ID":"47657","MEAN_ELEMENT_THEORY":"SGP4","EPHEMERIS_TYPE":"0","REV_AT_EPOCH":"11973","TLE_LINE2":"2 47657  53.0518 164.4922 0001240  94.2594 265.8537 15.06456005119730","COUNTRY_CODE":"US","PERIAPSIS":"546.183","OBJECT_NAME":"STARLINK-2041","REF_FRAME":"TEME","TIME_SYSTEM":"UTC","RA_OF_ASC_NODE":"164.4922","MEAN_ANOMALY":"265.8537","EPOCH":"2023-04-11T11:50:33.996192","INCLINATION":"53.0518","ELEMENT_SET_NO":"999","RCS_SIZE":"LARGE","SITE":"AFETR","CLASSIFICATION_TYPE":"U","MEAN_MOTION":"15.06456005","FILE":"3885783","TLE_LINE1":"1 47657U 21012AP  23101.49344903  .00024993  00000-0  16883-2 0  9993","PERIOD":"95.589","LAUNCH_DATE":"2021-02-16","DECAY_DATE":null,"ECCENTRICITY":"0.00012400"},{"TIME_SYSTEM":"UTC","RA_OF_ASC_NODE":"162.7417","MEAN_ANOMALY":"278.2811","EPOCH":"2023-04-11T21:13:11.583840","RCS_SIZE":"LARGE","INCLINATION":"53.0526","ELEMENT_SET_NO":"999","PERIAPSIS":"545.881","COUNTRY_CODE":"US","TLE_LINE2":"2 47658  53.0526 162.7417 0001823  81.8385 278.2811 15.06422910119817","OBJECT_NAME":"STARLINK-2042","REF_FRAME":"TEME","PERIOD":"95.591","DECAY_DATE":null,"LAUNCH_DATE":"2021-02-16","ECCENTRICITY":"0.00018230","SITE":"AFETR","MEAN_MOTION":"15.06422910","FILE":"3885919","TLE_LINE1":"1 47658U 21012AQ  23101.88416185  .00004355  00000-0  31093-3 0  9990","CLASSIFICATION_TYPE":"U","MEAN_MOTION_DOT":"0.00004355","SEMIMAJOR_AXIS":"6925.278","MEAN_MOTION_DDOT":"0.0000000000000","APOAPSIS":"548.406","OBJECT_TYPE":"PAYLOAD","EPHEMERIS_TYPE":"0","MEAN_ELEMENT_THEORY":"SGP4","NORAD_CAT_ID":"47658","REV_AT_EPOCH":"11981","GP_ID":"229943675","ARG_OF_PERICENTER":"81.8385","OBJECT_ID":"2021-012AQ","BSTAR":"0.00031093000000","CENTER_NAME":"EARTH"},{"SEMIMAJOR_AXIS":"6925.352","MEAN_MOTION_DOT":"0.00020793","OBJECT_TYPE":"PAYLOAD","APOAPSIS":"548.064","MEAN_MOTION_DDOT":"0.0000000000000","REV_AT_EPOCH":"12139","NORAD_CAT_ID":"47659","EPHEMERIS_TYPE":"0","MEAN_ELEMENT_THEORY":"SGP4","CENTER_NAME":"EARTH","BSTAR":"0.00141070000000","ARG_OF_PERICENTER":"72.5585","OBJECT_ID":"2021-012AR","GP_ID":"229915317","ELEMENT_SET_NO":"999","INCLINATION":"53.0554","RCS_SIZE":"LARGE","EPOCH":"2023-04-11T12:17:07.532736","RA_OF_ASC_NODE":"44.4101","TIME_SYSTEM":"UTC","MEAN_ANOMALY":"287.5537","REF_FRAME":"TEME","OBJECT_NAME":"STARLINK-2043","TLE_LINE2":"2 47659  53.0554  44.4101 0001224  72.5585 287.5537 15.06398999121392","COUNTRY_CODE":"US","PERIAPSIS":"546.369","ECCENTRICITY":"0.00012240","LAUNCH_DATE":"2021-02-16","DECAY_DATE":null,"PERIOD":"95.592","CLASSIFICATION_TYPE":"U","TLE_LINE1":"1 47659U 21012AR  23101.51189274  .00020793  00000-0  14107-2 0  9997","MEAN_MOTION":"15.06398999","FILE":"3885783","SITE":"AFETR"},{"REV_AT_EPOCH":"12098","EPHEMERIS_TYPE":"0","MEAN_ELEMENT_THEORY":"SGP4","NORAD_CAT_ID":"47660","BSTAR":"0.00008838300000","CENTER_NAME":"EARTH","GP_ID":"229884566","OBJECT_ID":"2021-012AS","ARG_OF_PERICENTER":"90.2413","SEMIMAJOR_AXIS":"6925.350","MEAN_MOTION_DOT":"0.00001035","OBJECT_TYPE":"PAYLOAD","APOAPSIS":"547.894","MEAN_MOTION_DDOT":"0.0000000000000","ECCENTRICITY":"0.00009800","DECAY_DATE":null,"LAUNCH_DATE":"2021-02-16","PERIOD":"95.592","TLE_LINE1":"1 47660U 21012AS  23101.19959237  .00001035  00000-0  88383-4 0  9994","FILE":"3885403","MEAN_MOTION":"15.06399582","CLASSIFICATION_TYPE":"U","SITE":"AFETR","RCS_SIZE":"LARGE","ELEMENT_SET_NO":"999","INCLINATION":"53.0560","EPOCH":"2023-04-11T04:47:24.780768","RA_OF_ASC_NODE":"36.4346","TIME_SYSTEM":"UTC","MEAN_ANOMALY":"269.8689","REF_FRAME":"TEME","OBJECT_NAME":"STARLINK-2044","PERIAPSIS":"546.536","TLE_LINE2":"2 47660  53.0560  36.4346 0000980  90.2413 269.8689 15.06399582120982","COUNTRY_CODE":"US"},{"SEMIMAJOR_AXIS":"6925.272","MEAN_MOTION_DOT":"0.00004306","OBJECT_TYPE":"PAYLOAD","APOAPSIS":"548.574","MEAN_MOTION_DDOT":"0.0000000000000","REV_AT_EPOCH":"12005","NORAD_CAT_ID":"47661","MEAN_ELEMENT_THEORY":"SGP4","EPHEMERIS_TYPE":"0","CENTER_NAME":"EARTH","BSTAR":"0.00030757000000","ARG_OF_PERICENTER":"55.6945","OBJECT_ID":"2021-012AT","GP_ID":"229943925","ELEMENT_SET_NO":"999","INCLINATION":"53.0516","RCS_SIZE":"LARGE","EPOCH":"2023-04-11T20:22:46.604928","TIME_SYSTEM":"UTC","RA_OF_ASC_NODE":"142.8949","MEAN_ANOMALY":"304.4240","REF_FRAME":"TEME","OBJECT_NAME":"STARLINK-2051","TLE_LINE2":"2 47661  53.0516 142.8949 0002076  55.6945 304.4240 15.06425092120051","COUNTRY_CODE":"US","PERIAPSIS":"545.699","ECCENTRICITY":"0.00020760","LAUNCH_DATE":"2021-02-16","DECAY_DATE":null,"PERIOD":"95.591","CLASSIFICATION_TYPE":"U","TLE_LINE1":"1 47661U 21012AT  23101.84915052  .00004306  00000-0  30757-3 0  9999","FILE":"3885919","MEAN_MOTION":"15.06425092","SITE":"AFETR"},{"COUNTRY_CODE":"US","TLE_LINE2":"2 47662  53.0520 142.9818 0001563  78.1445 281.9719 15.06427800119550","PERIAPSIS":"546.046","REF_FRAME":"TEME","OBJECT_NAME":"STARLINK-2052","EPOCH":"2023-04-11T19:54:52.219584","MEAN_ANOMALY":"281.9719","RA_OF_ASC_NODE":"142.9818","TIME_SYSTEM":"UTC","ELEMENT_SET_NO":"999","INCLINATION":"53.0520","RCS_SIZE":"LARGE","SITE":"AFETR","CLASSIFICATION_TYPE":"U","TLE_LINE1":"1 47662U 21012AU  23101.82977106  .00004697  00000-0  33376-3 0  9999","FILE":"3885818","MEAN_MOTION":"15.06427800","PERIOD":"95.590","ECCENTRICITY":"0.00015630","LAUNCH_DATE":"2021-02-16","DECAY_DATE":null,"MEAN_MOTION_DDOT":"0.0000000000000","OBJECT_TYPE":"PAYLOAD","APOAPSIS":"548.211","MEAN_MOTION_DOT":"0.00004697","SEMIMAJOR_AXIS":"6925.263","ARG_OF_PERICENTER":"78.1445","OBJECT_ID":"2021-012AU","GP_ID":"229920578","CENTER_NAME":"EARTH","BSTAR":"0.00033376000000","NORAD_CAT_ID":"47662","MEAN_ELEMENT_THEORY":"SGP4","EPHEMERIS_TYPE":"0","REV_AT_EPOCH":"11955"}];
